{
  "type": "FeatureCollection",
  "features": [
    {
      "type": "Feature",
      "properties": {
        "norad_id": 39617,
        "name": "ASTRA 5B (EGNOS/PRN 123)",
        "group": "gnss",
        "lat": -0.06681968332015378,
        "lon": -70.52790560463451,
        "alt_km": 35767.574256093394,
        "timestamp": "2025-12-23T11:34:48.409815+00:00",
        "meta_object_name": "ASTRA 5B (EGNOS/PRN 123)",
        "meta_object_id": "2014-011B",
        "meta_epoch": "2025-12-23T02:58:22.279008",
        "meta_mean_motion": 1.00270531,
        "meta_eccentricity": 0.0004521,
        "meta_inclination": 0.0438,
        "meta_ra_of_asc_node": 7.8872,
        "meta_arg_of_pericenter": 270.9911,
        "meta_mean_anomaly": 241.13,
        "meta_ephemeris_type": 0,
        "meta_classification_type": "U",
        "meta_norad_cat_id": 39617,
        "meta_element_set_no": 999,
        "meta_rev_at_epoch": 4290,
        "meta_bstar": 0,
        "meta_mean_motion_dot": 1.58e-06,
        "meta_mean_motion_ddot": 0,
        "tle_line1": "1 39617U 14011B   25357.12386897  .00000158  00000+0  00000+0 0  9991",
        "tle_line2": "2 39617   0.0438   7.8872 0004521 270.9911 241.1300  1.00270531 42901"
      },
      "geometry": {
        "type": "Point",
        "coordinates": [
          -70.52790560463451,
          -0.06681968332015378
        ]
      }
    },
    {
      "type": "Feature",
      "properties": {
        "norad_id": 39620,
        "name": "COSMOS 2492 (754)",
        "group": "gnss",
        "lat": 65.39890732013724,
        "lon": 48.787466916134434,
        "alt_km": 19149.097913163376,
        "timestamp": "2025-12-23T11:34:48.409825+00:00",
        "meta_object_name": "COSMOS 2492 (754)",
        "meta_object_id": "2014-012A",
        "meta_epoch": "2025-12-21T22:59:34.433088",
        "meta_mean_motion": 2.13103396,
        "meta_eccentricity": 0.00142426,
        "meta_inclination": 65.4026,
        "meta_ra_of_asc_node": 319.9579,
        "meta_arg_of_pericenter": 313.3292,
        "meta_mean_anomaly": 46.5466,
        "meta_ephemeris_type": 0,
        "meta_classification_type": "U",
        "meta_norad_cat_id": 39620,
        "meta_element_set_no": 999,
        "meta_rev_at_epoch": 9146,
        "meta_bstar": 0,
        "meta_mean_motion_dot": -4.2e-07,
        "meta_mean_motion_ddot": 0,
        "tle_line1": "1 39620U 14012A   25355.95803742 -.00000042  00000+0  00000+0 0  9991",
        "tle_line2": "2 39620  65.4026 319.9579 0014242 313.3292  46.5466  2.13103396 91463"
      },
      "geometry": {
        "type": "Point",
        "coordinates": [
          48.787466916134434,
          65.39890732013724
        ]
      }
    },
    {
      "type": "Feature",
      "properties": {
        "norad_id": 39635,
        "name": "IRNSS-1B",
        "group": "gnss",
        "lat": 28.46247238795591,
        "lon": -40.93906309973939,
        "alt_km": 35792.97188173192,
        "timestamp": "2025-12-23T11:34:48.409835+00:00",
        "meta_object_name": "IRNSS-1B",
        "meta_object_id": "2014-017A",
        "meta_epoch": "2025-12-22T18:17:38.465664",
        "meta_mean_motion": 1.00271468,
        "meta_eccentricity": 0.00185374,
        "meta_inclination": 29.2378,
        "meta_ra_of_asc_node": 243.4218,
        "meta_arg_of_pericenter": 174.8088,
        "meta_mean_anomaly": 2.8747,
        "meta_ephemeris_type": 0,
        "meta_classification_type": "U",
        "meta_norad_cat_id": 39635,
        "meta_element_set_no": 999,
        "meta_rev_at_epoch": 4302,
        "meta_bstar": 0,
        "meta_mean_motion_dot": 1.47e-06,
        "meta_mean_motion_ddot": 0,
        "tle_line1": "1 39635U 14017A   25356.76225076  .00000147  00000+0  00000+0 0  9995",
        "tle_line2": "2 39635  29.2378 243.4218 0018537 174.8088   2.8747  1.00271468 43029"
      },
      "geometry": {
        "type": "Point",
        "coordinates": [
          -40.93906309973939,
          28.46247238795591
        ]
      }
    },
    {
      "type": "Feature",
      "properties": {
        "norad_id": 39727,
        "name": "LUCH 5V (SDCM/PRN 141)",
        "group": "gnss",
        "lat": -4.43877924445935,
        "lon": 0.7980748368344603,
        "alt_km": 35781.8733106154,
        "timestamp": "2025-12-23T11:34:48.409845+00:00",
        "meta_object_name": "LUCH 5V (SDCM/PRN 141)",
        "meta_object_id": "2014-023A",
        "meta_epoch": "2025-12-23T03:18:42.831936",
        "meta_mean_motion": 1.00275112,
        "meta_eccentricity": 0.0003706,
        "meta_inclination": 4.6945,
        "meta_ra_of_asc_node": 71.4513,
        "meta_arg_of_pericenter": 213.7329,
        "meta_mean_anomaly": 311.1477,
        "meta_ephemeris_type": 0,
        "meta_classification_type": "U",
        "meta_norad_cat_id": 39727,
        "meta_element_set_no": 999,
        "meta_rev_at_epoch": 4259,
        "meta_bstar": 0,
        "meta_mean_motion_dot": -2.5e-06,
        "meta_mean_motion_ddot": 0,
        "tle_line1": "1 39727U 14023A   25357.13799574 -.00000250  00000+0  00000+0 0  9991",
        "tle_line2": "2 39727   4.6945  71.4513 0003706 213.7329 311.1477  1.00275112 42595"
      },
      "geometry": {
        "type": "Point",
        "coordinates": [
          0.7980748368344603,
          -4.43877924445935
        ]
      }
    },
    {
      "type": "Feature",
      "properties": {
        "norad_id": 39741,
        "name": "GPS BIIF-6  (PRN 06)",
        "group": "gnss",
        "lat": 11.872629386918941,
        "lon": -13.677660327382414,
        "alt_km": 20121.07144794575,
        "timestamp": "2025-12-23T11:34:48.409856+00:00",
        "meta_object_name": "GPS BIIF-6  (PRN 06)",
        "meta_object_id": "2014-026A",
        "meta_epoch": "2025-12-21T23:12:34.799616",
        "meta_mean_motion": 2.00560759,
        "meta_eccentricity": 0.00394103,
        "meta_inclination": 56.58,
        "meta_ra_of_asc_node": 338.4177,
        "meta_arg_of_pericenter": 319.2097,
        "meta_mean_anomaly": 40.4995,
        "meta_ephemeris_type": 0,
        "meta_classification_type": "U",
        "meta_norad_cat_id": 39741,
        "meta_element_set_no": 999,
        "meta_rev_at_epoch": 8498,
        "meta_bstar": 0,
        "meta_mean_motion_dot": -6.8e-07,
        "meta_mean_motion_ddot": 0,
        "tle_line1": "1 39741U 14026A   25355.96706944 -.00000068  00000+0  00000+0 0  9995",
        "tle_line2": "2 39741  56.5800 338.4177 0039410 319.2097  40.4995  2.00560759 84985"
      },
      "geometry": {
        "type": "Point",
        "coordinates": [
          -13.677660327382414,
          11.872629386918941
        ]
      }
    },
    {
      "type": "Feature",
      "properties": {
        "norad_id": 40001,
        "name": "COSMOS 2500 (755)",
        "group": "gnss",
        "lat": -37.82937445339051,
        "lon": -61.23558063428379,
        "alt_km": 19137.17910132687,
        "timestamp": "2025-12-23T11:34:48.409866+00:00",
        "meta_object_name": "COSMOS 2500 (755)",
        "meta_object_id": "2014-032A",
        "meta_epoch": "2025-12-21T04:35:55.026240",
        "meta_mean_motion": 2.13106227,
        "meta_eccentricity": 0.00077299,
        "meta_inclination": 65.3386,
        "meta_ra_of_asc_node": 319.7453,
        "meta_arg_of_pericenter": 219.3736,
        "meta_mean_anomaly": 140.5635,
        "meta_ephemeris_type": 0,
        "meta_classification_type": "U",
        "meta_norad_cat_id": 40001,
        "meta_element_set_no": 999,
        "meta_rev_at_epoch": 8966,
        "meta_bstar": 0,
        "meta_mean_motion_dot": -4.7e-07,
        "meta_mean_motion_ddot": 0,
        "tle_line1": "1 40001U 14032A   25355.19160910 -.00000047  00000+0  00000+0 0  9992",
        "tle_line2": "2 40001  65.3386 319.7453 0007729 219.3736 140.5635  2.13106227 89663"
      },
      "geometry": {
        "type": "Point",
        "coordinates": [
          -61.23558063428379,
          -37.82937445339051
        ]
      }
    },
    {
      "type": "Feature",
      "properties": {
        "norad_id": 40105,
        "name": "GPS BIIF-7  (PRN 09)",
        "group": "gnss",
        "lat": -37.809535375380534,
        "lon": 62.918148263872986,
        "alt_km": 20270.20187753744,
        "timestamp": "2025-12-23T11:34:48.409877+00:00",
        "meta_object_name": "GPS BIIF-7  (PRN 09)",
        "meta_object_id": "2014-045A",
        "meta_epoch": "2025-12-22T13:15:41.120064",
        "meta_mean_motion": 2.00573178,
        "meta_eccentricity": 0.0032421,
        "meta_inclination": 55.2347,
        "meta_ra_of_asc_node": 95.5075,
        "meta_arg_of_pericenter": 120.1432,
        "meta_mean_anomaly": 240.1836,
        "meta_ephemeris_type": 0,
        "meta_classification_type": "U",
        "meta_norad_cat_id": 40105,
        "meta_element_set_no": 999,
        "meta_rev_at_epoch": 8253,
        "meta_bstar": 0,
        "meta_mean_motion_dot": 1e-08,
        "meta_mean_motion_ddot": 0,
        "tle_line1": "1 40105U 14045A   25356.55255926  .00000001  00000+0  00000+0 0  9993",
        "tle_line2": "2 40105  55.2347  95.5075 0032421 120.1432 240.1836  2.00573178 82539"
      },
      "geometry": {
        "type": "Point",
        "coordinates": [
          62.918148263872986,
          -37.809535375380534
        ]
      }
    }
  ]
}